[{"OBJECT_NAME":"STARLINK-31423","OBJECT_ID":"2024-049M","EPOCH":"2026-03-09T13:29:41.233056","MEAN_MOTION":15.27583183,"ECCENTRICITY":0.0001346,"INCLINATION":43.0005,"RA_OF_ASC_NODE":144.5037,"ARG_OF_PERICENTER":254.2471,"MEAN_ANOMALY":105.8232,"EPHEMERIS_TYPE":0,"CLASSIFICATION_TYPE":"U","NORAD_CAT_ID":59242,"ELEMENT_SET_NO":999,"REV_AT_EPOCH":11238,"BSTAR":-4.5549e-5,"MEAN_MOTION_DOT":-1.515e-5,"MEAN_MOTION_DDOT":0},{"OBJECT_NAME":"GEOSCAN 3 (RS92S3)","OBJECT_ID":"2025-155T","EPOCH":"2026-03-09T22:52:10.587648","MEAN_MOTION":15.31696739,"ECCENTRICITY":0.00068078,"INCLINATION":97.4455,"RA_OF_ASC_NODE":37.9971,"ARG_OF_PERICENTER":154.1387,"MEAN_ANOMALY":206.0196,"EPHEMERIS_TYPE":0,"CLASSIFICATION_TYPE":"U","NORAD_CAT_ID":64893,"ELEMENT_SET_NO":999,"REV_AT_EPOCH":6564,"BSTAR":0.00078414081,"MEAN_MOTION_DOT":0.00023985,"MEAN_MOTION_DDOT":0}]
